[{"OBJECT_NAME":"STARLINK-3873","OBJECT_ID":"2022-049S","EPOCH":"2026-03-09T06:25:18.420384","MEAN_MOTION":15.0883171,"ECCENTRICITY":0.00013386,"INCLINATION":53.2168,"RA_OF_ASC_NODE":61.015,"ARG_OF_PERICENTER":91.4534,"MEAN_ANOMALY":268.6611,"EPHEMERIS_TYPE":0,"CLASSIFICATION_TYPE":"U","NORAD_CAT_ID":52467,"ELEMENT_SET_NO":999,"REV_AT_EPOCH":21218,"BSTAR":-1.6497752e-5,"MEAN_MOTION_DOT":-5.5e-6,"MEAN_MOTION_DDOT":0},{"OBJECT_NAME":"COSMOS 2251 DEB","OBJECT_ID":"1993-036BDM","EPOCH":"2026-03-07T08:26:45.291840","MEAN_MOTION":15.06951358,"ECCENTRICITY":0.00416459,"INCLINATION":73.8833,"RA_OF_ASC_NODE":199.9445,"ARG_OF_PERICENTER":129.9164,"MEAN_ANOMALY":230.5698,"EPHEMERIS_TYPE":0,"CLASSIFICATION_TYPE":"U","NORAD_CAT_ID":36551,"ELEMENT_SET_NO":999,"REV_AT_EPOCH":68204,"BSTAR":0.0035281021,"MEAN_MOTION_DOT":0.00054188,"MEAN_MOTION_DDOT":0}]
